NORAD_CAT_ID,OBJECT_NAME,OBJECT_TYPE,EPOCH,MEAN_MOTION,ECCENTRICITY,INCLINATION,RA_OF_ASC_NODE,ARG_OF_PERICENTER,MEAN_ANOMALY,BSTAR,MEAN_MOTION_DOT,MEAN_MOTION_DDOT,TLE_LINE0,TLE_LINE1,TLE_LINE2,SEMIMAJOR_AXIS,PERIOD,APOGEE,PERIGEE,DECAYED
52362.0,STARLINK-3848,PAYLOAD,2024-03-24 22:08:37,15.08863266,0.00017,53.2173,157.8349,102.1716,257.9466,0.00048148,7.388e-05,0.0,0 STARLINK-3848,1 52362U 22045AH  24084.92265726  .00007388  00000-0  48148-3 0  9992,2 52362  53.2173 157.8349 0001700 102.1716 257.9466 15.08863266108018,6917.809,95.436,540.85,538.498,0.0
52362.0,STARLINK-3848,PAYLOAD,2024-03-25 12:27:07,15.08841888,0.0001356,53.2161,155.1561,96.7268,263.3879,0.00015899,2.243e-05,0.0,0 STARLINK-3848,1 52362U 22045AH  24085.51883399  .00002243  00000-0  15899-3 0  9992,2 52362  53.2161 155.1561 0001356  96.7268 263.3879 15.08841888108104,6917.875,95.437,540.678,538.802,0.0
52362.0,STARLINK-3848,PAYLOAD,2024-03-25 14:02:30,15.08842745,0.0001305,53.2161,154.8587,97.9011,262.2129,0.0001618,2.288e-05,0.0,0 STARLINK-3848,1 52362U 22045AH  24085.58507314  .00002288  00000-0  16180-3 0  9992,2 52362  53.2161 154.8587 0001305  97.9011 262.2129 15.08842745108111,6917.872,95.437,540.64,538.834,0.0
52362.0,STARLINK-3848,PAYLOAD,2024-03-26 04:20:59,15.08817531,9.81e-05,53.2165,152.182,98.0236,262.0867,-0.00048852,-8.049e-05,0.0,0 STARLINK-3848,1 52362U 22045AH  24086.18124825 -.00008049  00000-0 -48852-3 0  9995,2 52362  53.2165 152.1820 0000981  98.0236 262.0867 15.08817531108208,6917.949,95.439,540.493,539.135,0.0
52362.0,STARLINK-3848,PAYLOAD,2024-03-26 10:42:32,15.08821399,0.0001648,53.2166,150.992,102.1102,258.0075,-0.00029995,-5.056e-05,0.0,0 STARLINK-3848,1 52362U 22045AH  24086.44621109 -.00005056  00000-0 -29995-3 0  9993,2 52362  53.2166 150.9920 0001648 102.1102 258.0075 15.08821399108243,6917.937,95.439,540.942,538.662,0.0
52362.0,STARLINK-3848,PAYLOAD,2024-03-27 10:33:19,15.08854248,0.0001344,53.2155,146.5329,92.6718,267.4428,0.00067214,0.00010429,0.0,0 STARLINK-3848,1 52362U 22045AH  24087.43980765  .00010429  00000-0  67214-3 0  9993,2 52362  53.2155 146.5329 0001344  92.6718 267.4428 15.08854248108395,6917.837,95.437,540.632,538.772,0.0
52362.0,STARLINK-3848,PAYLOAD,2024-03-28 10:24:06,15.08851404,0.0001438,53.2158,142.0712,98.3789,261.7366,0.00044659,6.829e-05,0.0,0 STARLINK-3848,1 52362U 22045AH  24088.43340450  .00006829  00000-0  44659-3 0  9992,2 52362  53.2158 142.0712 0001438  98.3789 261.7366 15.08851404108546,6917.846,95.437,540.705,538.716,0.0
52362.0,STARLINK-3848,PAYLOAD,2024-03-28 19:56:24,15.08849442,0.0001286,53.2152,140.2891,95.2904,264.8235,0.00024265,3.577e-05,0.0,0 STARLINK-3848,1 52362U 22045AH  24088.83084189  .00003577  00000-0  24265-3 0  9998,2 52362  53.2152 140.2891 0001286  95.2904 264.8235 15.08849442108609,6917.852,95.437,540.606,538.827,0.0
52362.0,STARLINK-3848,PAYLOAD,2024-03-29 03:53:20,15.08841772,0.0001216,53.2154,138.8025,86.2647,273.8484,-0.00027423,-4.65e-05,0.0,0 STARLINK-3848,1 52362U 22045AH  24089.16204148 -.00004650  00000-0 -27423-3 0  9998,2 52362  53.2154 138.8025 0001216  86.2647 273.8484 15.08841772108659,6917.875,95.437,540.581,538.899,0.0
52362.0,STARLINK-3848,PAYLOAD,2024-03-29 13:25:38,15.08853289,0.0001422,53.217,137.0198,92.5846,267.5308,-4.0453e-05,-9.32e-06,0.0,0 STARLINK-3848,1 52362U 22045AH  24089.55947911 -.00000932  00000-0 -40453-4 0  9991,2 52362  53.2170 137.0198 0001422  92.5846 267.5308 15.08853289108717,6917.84,95.437,540.688,538.721,0.0
52362.0,STARLINK-3848,PAYLOAD,2024-03-29 19:47:11,15.08849337,0.0001315,53.216,135.8293,89.3975,270.7168,-8.188e-05,-1.591e-05,0.0,0 STARLINK-3848,1 52362U 22045AH  24089.82444060 -.00001591  00000-0 -81880-4 0  9999,2 52362  53.2160 135.8293 0001315  89.3975 270.7168 15.08849337108759,6917.852,95.437,540.627,538.807,0.0
52362.0,STARLINK-3848,PAYLOAD,2024-03-30 10:05:39,15.08850021,0.0001303,53.2167,133.1551,97.756,262.358,1.9613e-05,2.4e-07,0.0,0 STARLINK-3848,1 52362U 22045AH  24090.42059788  .00000024  00000-0  19613-4 0  9999,2 52362  53.2167 133.1551 0001303  97.7560 262.3580 15.08850021108841,6917.85,95.437,540.616,538.813,0.0
52362.0,STARLINK-3848,PAYLOAD,2024-03-30 19:37:58,15.08848982,0.0001266,53.2163,131.3705,96.2609,263.8528,1.4654e-05,-5.5e-07,0.0,0 STARLINK-3848,1 52362U 22045AH  24090.81803708 -.00000055  00000-0  14654-4 0  9996,2 52362  53.2163 131.3705 0001266  96.2609 263.8528 15.08848982108902,6917.853,95.437,540.594,538.842,0.0
52362.0,STARLINK-3848,PAYLOAD,2024-03-31 11:31:49,15.08845441,0.0001347,53.2161,128.3961,90.3999,269.7147,0.00013049,1.79e-05,0.0,0 STARLINK-3848,1 52362U 22045AH  24091.48043716  .00001790  00000-0  13049-3 0  9997,2 52362  53.2161 128.3961 0001347  90.3999 269.7147 15.08845441109008,6917.864,95.437,540.661,538.797,0.0
52362.0,STARLINK-3848,PAYLOAD,2024-03-31 19:28:46,15.08835641,0.0001472,53.2159,126.9065,85.4606,274.6554,3.7399e-05,3.07e-06,0.0,0 STARLINK-3848,1 52362U 22045AH  24091.81164612  .00000307  00000-0  37399-4 0  9991,2 52362  53.2159 126.9065 0001472  85.4606 274.6554 15.08835641109056,6917.894,95.438,540.777,538.74,0.0
52362.0,STARLINK-3848,PAYLOAD,2024-04-01 11:22:37,15.08837785,0.000153,53.2164,123.9364,91.8849,268.2318,2.4422e-05,1.01e-06,0.0,0 STARLINK-3848,1 52362U 22045AH  24092.47404776  .00000101  00000-0  24422-4 0  9997,2 52362  53.2164 123.9364 0001530  91.8849 268.2318 15.08837785109155,6917.887,95.438,540.811,538.694,0.0
52362.0,STARLINK-3848,PAYLOAD,2024-04-02 01:41:05,15.08839669,0.0001555,53.2164,121.2575,90.0073,270.1097,9.1101e-05,1.162e-05,0.0,0 STARLINK-3848,1 52362U 22045AH  24093.07020596  .00001162  00000-0  91101-4 0  9994,2 52362  53.2164 121.2575 0001555  90.0073 270.1097 15.08839669109246,6917.881,95.438,540.822,538.671,0.0
52362.0,STARLINK-3848,PAYLOAD,2024-04-02 08:02:37,15.08846961,0.0001525,53.2161,120.0682,86.2703,273.8464,0.00011145,1.487e-05,0.0,0 STARLINK-3848,1 52362U 22045AH  24093.33516170  .00001487  00000-0  11145-3 0  9990,2 52362  53.2161 120.0682 0001525  86.2703 273.8464 15.08846961109288,6917.859,95.437,540.779,538.669,0.0
52362.0,STARLINK-3848,PAYLOAD,2024-04-02 19:10:19,15.08850038,0.0001512,53.2163,117.9863,95.3966,264.7199,4.1197e-05,3.68e-06,0.0,0 STARLINK-3848,1 52362U 22045AH  24093.79883897  .00000368  00000-0  41197-4 0  9991,2 52362  53.2163 117.9863 0001512  95.3966 264.7199 15.08850038109356,6917.85,95.437,540.761,538.669,0.0
52362.0,STARLINK-3848,PAYLOAD,2024-04-03 01:31:52,15.08839495,0.0001509,53.2161,116.7973,94.0143,266.1021,0.0001787,2.557e-05,0.0,0 STARLINK-3848,1 52362U 22045AH  24094.06380450  .00002557  00000-0  17870-3 0  9991,2 52362  53.2161 116.7973 0001509  94.0143 266.1021 15.08839495109390,6917.882,95.438,540.791,538.703,0.0
52362.0,STARLINK-3848,PAYLOAD,2024-04-03 07:53:25,15.08841528,0.0001524,53.2155,115.608,92.9149,267.2017,0.00018407,2.643e-05,0.0,0 STARLINK-3848,1 52362U 22045AH  24094.32876565  .00002643  00000-0  18407-3 0  9990,2 52362  53.2155 115.6080 0001524  92.9149 267.2017 15.08841528109432,6917.876,95.437,540.795,538.686,0.0
52362.0,STARLINK-3848,PAYLOAD,2024-04-04 04:33:26,15.08840528,0.000146,53.2151,111.741,98.6748,261.4409,2.2062e-05,6.3e-07,0.0,0 STARLINK-3848,1 52362U 22045AH  24095.18988523  .00000063  00000-0  22062-4 0  9990,2 52362  53.2151 111.7410 0001460  98.6748 261.4409 15.08840528109563,6917.879,95.438,540.754,538.734,0.0
52362.0,STARLINK-3848,PAYLOAD,2024-04-04 07:44:12,15.08840825,0.0001358,53.2153,111.1479,92.7787,267.336,4.0324e-05,3.54e-06,0.0,0 STARLINK-3848,1 52362U 22045AH  24095.32236605  .00000354  00000-0  40324-4 0  9997,2 52362  53.2153 111.1479 0001358  92.7787 267.3360 15.08840825109581,6917.878,95.438,540.682,538.803,0.0
52362.0,STARLINK-3848,PAYLOAD,2024-04-05 10:45:45,15.08842536,0.0001376,53.2154,106.0921,92.7875,267.3275,7.5911e-05,9.2e-06,0.0,0 STARLINK-3848,1 52362U 22045AH  24096.44844271  .00000920  00000-0  75911-4 0  9994,2 52362  53.2154 106.0921 0001376  92.7875 267.3275 15.08842536109750,6917.873,95.437,540.69,538.786,0.0
52362.0,STARLINK-3848,PAYLOAD,2024-04-05 17:07:18,15.08838985,0.0001338,53.215,104.9023,91.52,268.5945,4.7431e-05,4.67e-06,0.0,0 STARLINK-3848,1 52362U 22045AH  24096.71340538  .00000467  00000-0  47431-4 0  9993,2 52362  53.2150 104.9023 0001338  91.5200 268.5945 15.08838985109797,6917.883,95.438,540.674,538.823,0.0
52362.0,STARLINK-3848,PAYLOAD,2024-04-06 04:15:00,15.08834744,0.0001442,53.2163,102.8208,91.4681,268.6477,2.8711e-05,1.69e-06,0.0,0 STARLINK-3848,1 52362U 22045AH  24097.17708986  .00000169  00000-0  28711-4 0  9998,2 52362  53.2163 102.8208 0001442  91.4681 268.6477 15.08834744109869,6917.896,95.438,540.759,538.764,0.0
52362.0,STARLINK-3848,PAYLOAD,2024-04-06 07:25:46,15.08836777,0.0001449,53.2167,102.2265,91.7417,268.3741,4.2679e-05,3.91e-06,0.0,0 STARLINK-3848,1 52362U 22045AH  24097.30956844  .00000391  00000-0  42679-4 0  9997,2 52362  53.2167 102.2265 0001449  91.7417 268.3741 15.08836777109888,6917.89,95.438,540.758,538.753,0.0
52362.0,STARLINK-3848,PAYLOAD,2024-04-06 16:58:05,15.08835346,0.0001426,53.2166,100.4424,90.9691,269.1465,2.8688e-05,1.69e-06,0.0,0 STARLINK-3848,1 52362U 22045AH  24097.70701075  .00000169  00000-0  28688-4 0  9992,2 52362  53.2166 100.4424 0001426  90.9691 269.1465 15.08835346109944,6917.895,95.438,540.746,538.773,0.0
52362.0,STARLINK-3848,PAYLOAD,2024-04-07 07:16:34,15.08835884,0.000144,53.2169,97.7666,93.9658,266.1498,3.8077e-06,-2.27e-06,0.0,0 STARLINK-3848,1 52362U 22045AH  24098.30317314 -.00000227  00000-0  38077-5 0  9998,2 52362  53.2169  97.7666 0001440  93.9658 266.1498 15.08835884110037,6917.893,95.438,540.754,538.762,0.0
52362.0,STARLINK-3848,PAYLOAD,2024-04-07 16:48:52,15.0883816,0.0001444,53.217,95.9824,93.0422,267.0736,3.577e-05,2.81e-06,0.0,0 STARLINK-3848,1 52362U 22045AH  24098.70061177  .00000281  00000-0  35770-4 0  9990,2 52362  53.2170  95.9824 0001444  93.0422 267.0736 15.08838160110090,6917.886,95.438,540.75,538.752,0.0
